TIGRISAT                
1 40043U 14033AK  26032.93600678  .00002596  00000+0  30759-3 0  9992
2 40043  97.7604 186.2607 0050406 157.1961 203.1509 14.84497810625550
AEROCUBE 6A             
1 40045U 14033AM  26032.95962648  .00006601  00000+0  57959-3 0  9996
2 40045  97.7081 201.6146 0040812 107.7462 252.8220 14.96278160626389
AEROCUBE 6B             
1 40046U 14033AN  26032.95542203  .00007558  00000+0  64053-3 0  9993
2 40046  97.7071 201.1363 0039641  99.6769 260.8934 14.97638945626509
CANX-4                  
1 40055U 14034C   26032.63285842  .00001284  00000+0  17307-3 0  9992
2 40055  98.3325 262.8258 0014137  86.8021 273.4807 14.80959730624469
CANX-5                  
1 40056U 14034D   26032.56527244  .00001296  00000+0  17460-3 0  9993
2 40056  98.3326 262.7908 0014121  87.1943 273.0884 14.80975949615261
UKUBE-1                 
1 40074U 14037F   26032.93235736  .00008830  00000+0  53345-3 0  9992
2 40074  98.4182  22.2935 0000463 112.2078 247.9199 15.10967031628118
BRITE-PL2 (HEWELIUSZ)   
1 40119U 14049B   26032.84296784  .00002783  00000+0  26635-3 0  9998
2 40119  97.8981 143.9745 0013948 193.5867 166.4980 14.93973463621233
AEROCUBE 5C             
1 40965U 15058B   26032.95458538  .00002507  00000+0  23154-3 0  9994
2 40965  64.7697 323.0186 0132956 116.5091 244.9726 14.90558915345493
AEROCUBE 7              
1 40966U 15058C   26032.92147385  .00003674  00000+0  30629-3 0  9998
2 40966  64.7642 308.1181 0123106 115.8668 245.5200 14.94488532345734
FOX-1A (AO-85)          
1 40967U 15058D   26032.95736204  .00002637  00000+0  24717-3 0  9995
2 40967  64.7776 338.9529 0130629 110.0463 251.4766 14.90062695 93410
SINOD-D 1               
1 40968U 15058E   26032.98138265  .00004067  00000+0  33934-3 0  9992
2 40968  64.7774 321.9316 0119058 107.6815 253.7339 14.94635136 96448
SNAP-3 ALICE            
1 40970U 15058G   26032.89060247  .00046097  00000+0  11470-2 0  9998
2 40970  64.7568 203.6087 0038917  93.3604 267.1985 15.39219324 95930
LMRST-SAT               
1 40971U 15058H   26032.94607029  .00002444  00000+0  23117-3 0  9990
2 40971  64.7783 335.0765 0132931 111.9636 249.5664 14.89696498 93409
SNAP-3 EDDIE            
1 40972U 15058J   26032.84568242  .00051198  00000+0  12313-2 0  9998
2 40972  64.7490 195.3688 0040895  97.5699 263.0085 15.40128438 98057
PROPCUBE 3              
1 40973U 15058K   26032.97079595  .00003215  00000+0  27779-3 0  9991
2 40973  64.7707 314.6670 0125800 113.8818 247.5537 14.93160883 94604
BISONSAT                
1 40974U 15058L   26032.93777877  .00011393  00000+0  60697-3 0  9998
2 40974  64.7591 249.8195 0081889 107.7778 253.2302 15.12679872 95130
