[{"OBJECT_NAME":"TIGRISAT","OBJECT_ID":"2014-033AK","EPOCH":"2026-02-01T22:27:50.985792","MEAN_MOTION":14.8449781,"ECCENTRICITY":0.0050406,"INCLINATION":97.7604,"RA_OF_ASC_NODE":186.2607,"ARG_OF_PERICENTER":157.1961,"MEAN_ANOMALY":203.1509,"EPHEMERIS_TYPE":0,"CLASSIFICATION_TYPE":"U","NORAD_CAT_ID":40043,"ELEMENT_SET_NO":999,"REV_AT_EPOCH":62555,"BSTAR":0.00030758602,"MEAN_MOTION_DOT":2.596e-5,"MEAN_MOTION_DDOT":0},{"OBJECT_NAME":"AEROCUBE 6A","OBJECT_ID":"2014-033AM","EPOCH":"2026-02-01T23:01:51.727872","MEAN_MOTION":14.9627816,"ECCENTRICITY":0.00408124,"INCLINATION":97.7081,"RA_OF_ASC_NODE":201.6146,"ARG_OF_PERICENTER":107.7462,"MEAN_ANOMALY":252.822,"EPHEMERIS_TYPE":0,"CLASSIFICATION_TYPE":"U","NORAD_CAT_ID":40045,"ELEMENT_SET_NO":999,"REV_AT_EPOCH":62638,"BSTAR":0.00057959167,"MEAN_MOTION_DOT":6.601e-5,"MEAN_MOTION_DDOT":0},{"OBJECT_NAME":"AEROCUBE 6B","OBJECT_ID":"2014-033AN","EPOCH":"2026-02-01T22:55:48.463392","MEAN_MOTION":14.97638945,"ECCENTRICITY":0.00396419,"INCLINATION":97.7071,"RA_OF_ASC_NODE":201.1363,"ARG_OF_PERICENTER":99.6769,"MEAN_ANOMALY":260.8934,"EPHEMERIS_TYPE":0,"CLASSIFICATION_TYPE":"U","NORAD_CAT_ID":40046,"ELEMENT_SET_NO":999,"REV_AT_EPOCH":62650,"BSTAR":0.00064053106,"MEAN_MOTION_DOT":7.558e-5,"MEAN_MOTION_DDOT":0},{"OBJECT_NAME":"CANX-4","OBJECT_ID":"2014-034C","EPOCH":"2026-02-01T15:11:18.967488","MEAN_MOTION":14.8095973,"ECCENTRICITY":0.00141378,"INCLINATION":98.3325,"RA_OF_ASC_NODE":262.8258,"ARG_OF_PERICENTER":86.8021,"MEAN_ANOMALY":273.4807,"EPHEMERIS_TYPE":0,"CLASSIFICATION_TYPE":"U","NORAD_CAT_ID":40055,"ELEMENT_SET_NO":999,"REV_AT_EPOCH":62446,"BSTAR":0.00017306607,"MEAN_MOTION_DOT":1.284e-5,"MEAN_MOTION_DDOT":0},{"OBJECT_NAME":"CANX-5","OBJECT_ID":"2014-034D","EPOCH":"2026-02-01T13:33:59.538816","MEAN_MOTION":14.80975949,"ECCENTRICITY":0.00141217,"INCLINATION":98.3326,"RA_OF_ASC_NODE":262.7908,"ARG_OF_PERICENTER":87.1943,"MEAN_ANOMALY":273.0884,"EPHEMERIS_TYPE":0,"CLASSIFICATION_TYPE":"U","NORAD_CAT_ID":40056,"ELEMENT_SET_NO":999,"REV_AT_EPOCH":61526,"BSTAR":0.00017460495,"MEAN_MOTION_DOT":1.296e-5,"MEAN_MOTION_DDOT":0},{"OBJECT_NAME":"UKUBE-1","OBJECT_ID":"2014-037F","EPOCH":"2026-02-01T22:22:35.675904","MEAN_MOTION":15.10967031,"ECCENTRICITY":4.635e-5,"INCLINATION":98.4182,"RA_OF_ASC_NODE":22.2935,"ARG_OF_PERICENTER":112.2078,"MEAN_ANOMALY":247.9199,"EPHEMERIS_TYPE":0,"CLASSIFICATION_TYPE":"U","NORAD_CAT_ID":40074,"ELEMENT_SET_NO":999,"REV_AT_EPOCH":62811,"BSTAR":0.00053345384,"MEAN_MOTION_DOT":8.83e-5,"MEAN_MOTION_DDOT":0},{"OBJECT_NAME":"BRITE-PL2 (HEWELIUSZ)","OBJECT_ID":"2014-049B","EPOCH":"2026-02-01T20:13:52.421376","MEAN_MOTION":14.93973463,"ECCENTRICITY":0.00139481,"INCLINATION":97.8981,"RA_OF_ASC_NODE":143.9745,"ARG_OF_PERICENTER":193.5867,"MEAN_ANOMALY":166.498,"EPHEMERIS_TYPE":0,"CLASSIFICATION_TYPE":"U","NORAD_CAT_ID":40119,"ELEMENT_SET_NO":999,"REV_AT_EPOCH":62123,"BSTAR":0.00026635224,"MEAN_MOTION_DOT":2.783e-5,"MEAN_MOTION_DDOT":0},{"OBJECT_NAME":"AEROCUBE 5C","OBJECT_ID":"2015-058B","EPOCH":"2026-02-01T22:54:36.176832","MEAN_MOTION":14.90558915,"ECCENTRICITY":0.01329563,"INCLINATION":64.7697,"RA_OF_ASC_NODE":323.0186,"ARG_OF_PERICENTER":116.5091,"MEAN_ANOMALY":244.9726,"EPHEMERIS_TYPE":0,"CLASSIFICATION_TYPE":"U","NORAD_CAT_ID":40965,"ELEMENT_SET_NO":999,"REV_AT_EPOCH":34549,"BSTAR":0.00023153704,"MEAN_MOTION_DOT":2.507e-5,"MEAN_MOTION_DDOT":0},{"OBJECT_NAME":"AEROCUBE 7","OBJECT_ID":"2015-058C","EPOCH":"2026-02-01T22:06:55.340640","MEAN_MOTION":14.94488532,"ECCENTRICITY":0.01231069,"INCLINATION":64.7642,"RA_OF_ASC_NODE":308.1181,"ARG_OF_PERICENTER":115.8668,"MEAN_ANOMALY":245.52,"EPHEMERIS_TYPE":0,"CLASSIFICATION_TYPE":"U","NORAD_CAT_ID":40966,"ELEMENT_SET_NO":999,"REV_AT_EPOCH":34573,"BSTAR":0.00030628564,"MEAN_MOTION_DOT":3.674e-5,"MEAN_MOTION_DDOT":0},{"OBJECT_NAME":"FOX-1A (AO-85)","OBJECT_ID":"2015-058D","EPOCH":"2026-02-01T22:58:36.080256","MEAN_MOTION":14.90062695,"ECCENTRICITY":0.01306298,"INCLINATION":64.7776,"RA_OF_ASC_NODE":338.9529,"ARG_OF_PERICENTER":110.0463,"MEAN_ANOMALY":251.4766,"EPHEMERIS_TYPE":0,"CLASSIFICATION_TYPE":"U","NORAD_CAT_ID":40967,"ELEMENT_SET_NO":999,"REV_AT_EPOCH":9341,"BSTAR":0.00024716874,"MEAN_MOTION_DOT":2.637e-5,"MEAN_MOTION_DDOT":0},{"OBJECT_NAME":"SINOD-D 1","OBJECT_ID":"2015-058E","EPOCH":"2026-02-01T23:33:11.460960","MEAN_MOTION":14.94635136,"ECCENTRICITY":0.01190582,"INCLINATION":64.7774,"RA_OF_ASC_NODE":321.9316,"ARG_OF_PERICENTER":107.6815,"MEAN_ANOMALY":253.7339,"EPHEMERIS_TYPE":0,"CLASSIFICATION_TYPE":"U","NORAD_CAT_ID":40968,"ELEMENT_SET_NO":999,"REV_AT_EPOCH":9644,"BSTAR":0.00033933585,"MEAN_MOTION_DOT":4.067e-5,"MEAN_MOTION_DDOT":0},{"OBJECT_NAME":"SNAP-3 ALICE","OBJECT_ID":"2015-058G","EPOCH":"2026-02-01T21:22:28.053408","MEAN_MOTION":15.39219324,"ECCENTRICITY":0.00389174,"INCLINATION":64.7568,"RA_OF_ASC_NODE":203.6087,"ARG_OF_PERICENTER":93.3604,"MEAN_ANOMALY":267.1985,"EPHEMERIS_TYPE":0,"CLASSIFICATION_TYPE":"U","NORAD_CAT_ID":40970,"ELEMENT_SET_NO":999,"REV_AT_EPOCH":9593,"BSTAR":0.0011470328,"MEAN_MOTION_DOT":0.00046097,"MEAN_MOTION_DDOT":0},{"OBJECT_NAME":"LMRST-SAT","OBJECT_ID":"2015-058H","EPOCH":"2026-02-01T22:42:20.473056","MEAN_MOTION":14.89696498,"ECCENTRICITY":0.01329314,"INCLINATION":64.7783,"RA_OF_ASC_NODE":335.0765,"ARG_OF_PERICENTER":111.9636,"MEAN_ANOMALY":249.5664,"EPHEMERIS_TYPE":0,"CLASSIFICATION_TYPE":"U","NORAD_CAT_ID":40971,"ELEMENT_SET_NO":999,"REV_AT_EPOCH":9340,"BSTAR":0.00023116645,"MEAN_MOTION_DOT":2.444e-5,"MEAN_MOTION_DDOT":0},{"OBJECT_NAME":"SNAP-3 EDDIE","OBJECT_ID":"2015-058J","EPOCH":"2026-02-01T20:17:46.961088","MEAN_MOTION":15.40128438,"ECCENTRICITY":0.00408959,"INCLINATION":64.749,"RA_OF_ASC_NODE":195.3688,"ARG_OF_PERICENTER":97.5699,"MEAN_ANOMALY":263.0085,"EPHEMERIS_TYPE":0,"CLASSIFICATION_TYPE":"U","NORAD_CAT_ID":40972,"ELEMENT_SET_NO":999,"REV_AT_EPOCH":9805,"BSTAR":0.0012312511,"MEAN_MOTION_DOT":0.00051198,"MEAN_MOTION_DDOT":0},{"OBJECT_NAME":"PROPCUBE 3","OBJECT_ID":"2015-058K","EPOCH":"2026-02-01T23:17:56.770080","MEAN_MOTION":14.93160883,"ECCENTRICITY":0.01258008,"INCLINATION":64.7707,"RA_OF_ASC_NODE":314.667,"ARG_OF_PERICENTER":113.8818,"MEAN_ANOMALY":247.5537,"EPHEMERIS_TYPE":0,"CLASSIFICATION_TYPE":"U","NORAD_CAT_ID":40973,"ELEMENT_SET_NO":999,"REV_AT_EPOCH":9460,"BSTAR":0.00027779354,"MEAN_MOTION_DOT":3.215e-5,"MEAN_MOTION_DDOT":0},{"OBJECT_NAME":"BISONSAT","OBJECT_ID":"2015-058L","EPOCH":"2026-02-01T22:30:24.085728","MEAN_MOTION":15.12679872,"ECCENTRICITY":0.00818896,"INCLINATION":64.7591,"RA_OF_ASC_NODE":249.8195,"ARG_OF_PERICENTER":107.7778,"MEAN_ANOMALY":253.2302,"EPHEMERIS_TYPE":0,"CLASSIFICATION_TYPE":"U","NORAD_CAT_ID":40974,"ELEMENT_SET_NO":999,"REV_AT_EPOCH":9513,"BSTAR":0.00060696704,"MEAN_MOTION_DOT":0.00011393,"MEAN_MOTION_DDOT":0}]
